{
    "links": {
        "self": "http://www.neowsapp.com/rest/v1/neo/3442525?api_key=iIulBulltgU6a56xZRHN4H3l9WmuAYTsLGpBGhQ2"
    },
    "id": "3442525",
    "neo_reference_id": "3442525",
    "name": "(2008 YN27)",
    "designation": "2008 YN27",
    "nasa_jpl_url": "http://ssd.jpl.nasa.gov/sbdb.cgi?sstr=3442525",
    "absolute_magnitude_h": 22.0,
    "estimated_diameter": {
        "kilometers": {
            "estimated_diameter_min": 0.1058168859,
            "estimated_diameter_max": 0.2366137501
        },
        "meters": {
            "estimated_diameter_min": 105.8168859331,
            "estimated_diameter_max": 236.6137501138
        },
        "miles": {
            "estimated_diameter_min": 0.0657515442,
            "estimated_diameter_max": 0.1470249225
        },
        "feet": {
            "estimated_diameter_min": 347.1682720448,
            "estimated_diameter_max": 776.2918559233
        }
    },
    "is_potentially_hazardous_asteroid": false,
    "close_approach_data": [
        {
            "close_approach_date": "1996-01-05",
            "close_approach_date_full": "1996-Jan-05 02:11",
            "epoch_date_close_approach": 820807860000,
            "relative_velocity": {
                "kilometers_per_second": "23.6393067752",
                "kilometers_per_hour": "85101.5043905933",
                "miles_per_hour": "52878.7653253661"
            },
            "miss_distance": {
                "astronomical": "0.2475756764",
                "lunar": "96.3069381196",
                "kilometers": "37036793.853249268",
                "miles": "23013596.5457571784"
            },
            "orbiting_body": "Earth"
        },
        {
            "close_approach_date": "2008-12-24",
            "close_approach_date_full": "2008-Dec-24 09:31",
            "epoch_date_close_approach": 1230111060000,
            "relative_velocity": {
                "kilometers_per_second": "18.7807328378",
                "kilometers_per_hour": "67610.6382160912",
                "miles_per_hour": "42010.6212848818"
            },
            "miss_distance": {
                "astronomical": "0.0681341073",
                "lunar": "26.5041677397",
                "kilometers": "10192717.326431451",
                "miles": "6333460.8601619838"
            },
            "orbiting_body": "Earth"
        }
    ],
    "orbital_data": {
        "orbit_id": "14",
        "orbit_determination_date": "2017-04-06 09:01:51",
        "first_observation_date": "2008-12-29",
        "last_observation_date": "2009-01-31",
        "data_arc_in_days": 33,
        "observations_used": 63,
        "orbit_uncertainty": "7",
        "minimum_orbit_intersection": ".0582006",
        "jupiter_tisserand_invariant": "3.327",
        "epoch_osculation": "2459000.5",
        "eccentricity": ".5965757849105853",
        "semi_major_axis": "2.190916941253179",
        "inclination": "23.93523922763318",
        "ascending_node_longitude": "96.24312226665586",
        "orbital_period": "1184.506087986057",
        "perihelion_distance": ".8838689473511649",
        "perihelion_argument": "303.4047864479849",
        "aphelion_distance": "3.497964935155192",
        "perihelion_time": "2459528.151132159024",
        "mean_anomaly": "199.6340808174179",
        "mean_motion": ".3039241449675331",
        "equinox": "J2000",
        "orbit_class": {
            "orbit_class_type": "APO",
            "orbit_class_description": "Near-Earth asteroid orbits which cross the Earth’s orbit similar to that of 1862 Apollo",
            "orbit_class_range": "a (semi-major axis) > 1.0 AU; q (perihelion) < 1.017 AU"
        }
    },
    "is_sentry_object": false
}